{
  "type": "FeatureCollection",
  "features": [
    {
      "type": "Feature",
      "properties": {
        "norad_id": 32376,
        "name": "COSMO-SKYMED 2",
        "group": "resource",
        "lat": 73.49765948406358,
        "lon": 151.59839075665525,
        "alt_km": 614.5779538273246,
        "timestamp": "2025-12-24T07:45:05.855469+00:00",
        "meta_object_name": "COSMO-SKYMED 2",
        "meta_object_id": "2007-059A",
        "meta_epoch": "2025-12-23T23:18:40.460832",
        "meta_mean_motion": 14.82155863,
        "meta_eccentricity": 0.00013109,
        "meta_inclination": 97.8805,
        "meta_ra_of_asc_node": 179.1259,
        "meta_arg_of_pericenter": 82.5112,
        "meta_mean_anomaly": 277.625,
        "meta_ephemeris_type": 0,
        "meta_classification_type": "U",
        "meta_norad_cat_id": 32376,
        "meta_element_set_no": 999,
        "meta_rev_at_epoch": 97604,
        "meta_bstar": 7.3597305e-05,
        "meta_mean_motion_dot": 5.34e-06,
        "meta_mean_motion_ddot": 0,
        "tle_line1": "1 32376U 07059A   25357.97130163  .00000534  00000+0  73597-4 0  9990",
        "tle_line2": "2 32376  97.8805 179.1259 0001310  82.5112 277.6250 14.82155863976046"
      },
      "geometry": {
        "type": "Point",
        "coordinates": [
          151.59839075665525,
          73.49765948406358
        ]
      }
    },
    {
      "type": "Feature",
      "properties": {
        "norad_id": 32382,
        "name": "RADARSAT-2",
        "group": "resource",
        "lat": 12.359587488238596,
        "lon": 0.8485505177150952,
        "alt_km": 792.7286635954197,
        "timestamp": "2025-12-24T07:45:05.855480+00:00",
        "meta_object_name": "RADARSAT-2",
        "meta_object_id": "2007-061A",
        "meta_epoch": "2025-12-23T23:17:48.637248",
        "meta_mean_motion": 14.29984569,
        "meta_eccentricity": 0.00011191,
        "meta_inclination": 98.5793,
        "meta_ra_of_asc_node": 2.3971,
        "meta_arg_of_pericenter": 85.9406,
        "meta_mean_anomaly": 274.1904,
        "meta_ephemeris_type": 0,
        "meta_classification_type": "U",
        "meta_norad_cat_id": 32382,
        "meta_element_set_no": 999,
        "meta_rev_at_epoch": 94091,
        "meta_bstar": 7.620558e-06,
        "meta_mean_motion_dot": -2.4e-07,
        "meta_mean_motion_ddot": 0,
        "tle_line1": "1 32382U 07061A   25357.97070182 -.00000024  00000+0  76206-5 0  9990",
        "tle_line2": "2 32382  98.5793   2.3971 0001119  85.9406 274.1904 14.29984569940914"
      },
      "geometry": {
        "type": "Point",
        "coordinates": [
          0.8485505177150952,
          12.359587488238596
        ]
      }
    },
    {
      "type": "Feature",
      "properties": {
        "norad_id": 32783,
        "name": "CARTOSAT-2A",
        "group": "resource",
        "lat": 78.59358473363243,
        "lon": 5.046275027069772,
        "alt_km": 628.6343564790104,
        "timestamp": "2025-12-24T07:45:05.855490+00:00",
        "meta_object_name": "CARTOSAT-2A",
        "meta_object_id": "2008-021A",
        "meta_epoch": "2025-12-23T23:15:54.794016",
        "meta_mean_motion": 14.78949968,
        "meta_eccentricity": 0.00110011,
        "meta_inclination": 97.7911,
        "meta_ra_of_asc_node": 47.4412,
        "meta_arg_of_pericenter": 327.2712,
        "meta_mean_anomaly": 32.7817,
        "meta_ephemeris_type": 0,
        "meta_classification_type": "U",
        "meta_norad_cat_id": 32783,
        "meta_element_set_no": 999,
        "meta_rev_at_epoch": 95290,
        "meta_bstar": 7.2314326e-05,
        "meta_mean_motion_dot": 4.84e-06,
        "meta_mean_motion_ddot": 0,
        "tle_line1": "1 32783U 08021A   25357.96938419  .00000484  00000+0  72314-4 0  9991",
        "tle_line2": "2 32783  97.7911  47.4412 0011001 327.2712  32.7817 14.78949968952906"
      },
      "geometry": {
        "type": "Point",
        "coordinates": [
          5.046275027069772,
          78.59358473363243
        ]
      }
    },
    {
      "type": "Feature",
      "properties": {
        "norad_id": 33320,
        "name": "HUANJING 1A (HJ-1A)",
        "group": "resource",
        "lat": 46.443924397464485,
        "lon": 174.2692039246779,
        "alt_km": 624.0922373654284,
        "timestamp": "2025-12-24T07:45:05.855501+00:00",
        "meta_object_name": "HUANJING 1A (HJ-1A)",
        "meta_object_id": "2008-041A",
        "meta_epoch": "2025-12-23T23:03:38.564064",
        "meta_mean_motion": 14.83427083,
        "meta_eccentricity": 0.00193136,
        "meta_inclination": 97.6546,
        "meta_ra_of_asc_node": 345.7907,
        "meta_arg_of_pericenter": 358.7486,
        "meta_mean_anomaly": 1.3677,
        "meta_ephemeris_type": 0,
        "meta_classification_type": "U",
        "meta_norad_cat_id": 33320,
        "meta_element_set_no": 999,
        "meta_rev_at_epoch": 93242,
        "meta_bstar": 0.00015514087,
        "meta_mean_motion_dot": 1.226e-05,
        "meta_mean_motion_ddot": 0,
        "tle_line1": "1 33320U 08041A   25357.96086301  .00001226  00000+0  15514-3 0  9998",
        "tle_line2": "2 33320  97.6546 345.7907 0019313 358.7486   1.3677 14.83427083932427"
      },
      "geometry": {
        "type": "Point",
        "coordinates": [
          174.2692039246779,
          46.443924397464485
        ]
      }
    },
    {
      "type": "Feature",
      "properties": {
        "norad_id": 33321,
        "name": "HUANJING 1B (HJ-1B)",
        "group": "resource",
        "lat": -30.344116687762543,
        "lon": -5.688853899577822,
        "alt_km": 617.0037616752543,
        "timestamp": "2025-12-24T07:45:05.855512+00:00",
        "meta_object_name": "HUANJING 1B (HJ-1B)",
        "meta_object_id": "2008-041B",
        "meta_epoch": "2025-12-23T23:47:29.232384",
        "meta_mean_motion": 14.8284783,
        "meta_eccentricity": 0.00377872,
        "meta_inclination": 97.6402,
        "meta_ra_of_asc_node": 349.4873,
        "meta_arg_of_pericenter": 40.0423,
        "meta_mean_anomaly": 320.3566,
        "meta_ephemeris_type": 0,
        "meta_classification_type": "U",
        "meta_norad_cat_id": 33321,
        "meta_element_set_no": 999,
        "meta_rev_at_epoch": 93244,
        "meta_bstar": 0.0001338043,
        "meta_mean_motion_dot": 1.045e-05,
        "meta_mean_motion_ddot": 0,
        "tle_line1": "1 33321U 08041B   25357.99131056  .00001045  00000+0  13380-3 0  9998",
        "tle_line2": "2 33321  97.6402 349.4873 0037787  40.0423 320.3566 14.82847830932447"
      },
      "geometry": {
        "type": "Point",
        "coordinates": [
          -5.688853899577822,
          -30.344116687762543
        ]
      }
    },
    {
      "type": "Feature",
      "properties": {
        "norad_id": 33331,
        "name": "GEOEYE 1",
        "group": "resource",
        "lat": -75.058222525439,
        "lon": 101.81862770564018,
        "alt_km": 683.9088941363043,
        "timestamp": "2025-12-24T07:45:05.855528+00:00",
        "meta_object_name": "GEOEYE 1",
        "meta_object_id": "2008-042A",
        "meta_epoch": "2025-12-23T22:16:02.937792",
        "meta_mean_motion": 14.64714663,
        "meta_eccentricity": 0.00029457,
        "meta_inclination": 98.1238,
        "meta_ra_of_asc_node": 69.067,
        "meta_arg_of_pericenter": 236.1099,
        "meta_mean_anomaly": 123.9824,
        "meta_ephemeris_type": 0,
        "meta_classification_type": "U",
        "meta_norad_cat_id": 33331,
        "meta_element_set_no": 999,
        "meta_rev_at_epoch": 92449,
        "meta_bstar": 0.00011712833,
        "meta_mean_motion_dot": 5.76e-06,
        "meta_mean_motion_ddot": 0,
        "tle_line1": "1 33331U 08042A   25357.92781178  .00000576  00000+0  11713-3 0  9995",
        "tle_line2": "2 33331  98.1238  69.0670 0002945 236.1099 123.9824 14.64714663924493"
      },
      "geometry": {
        "type": "Point",
        "coordinates": [
          101.81862770564018,
          -75.058222525439
        ]
      }
    },
    {
      "type": "Feature",
      "properties": {
        "norad_id": 33396,
        "name": "THEOS",
        "group": "resource",
        "lat": 77.7033401934707,
        "lon": 12.1996283033934,
        "alt_km": 816.8547770537534,
        "timestamp": "2025-12-24T07:45:05.855538+00:00",
        "meta_object_name": "THEOS",
        "meta_object_id": "2008-049A",
        "meta_epoch": "2025-12-23T22:54:57.557376",
        "meta_mean_motion": 14.2009742,
        "meta_eccentricity": 0.00012221,
        "meta_inclination": 98.5849,
        "meta_ra_of_asc_node": 55.7128,
        "meta_arg_of_pericenter": 93.3739,
        "meta_mean_anomaly": 266.7577,
        "meta_ephemeris_type": 0,
        "meta_classification_type": "U",
        "meta_norad_cat_id": 33396,
        "meta_element_set_no": 999,
        "meta_rev_at_epoch": 89309,
        "meta_bstar": -7.4221436e-05,
        "meta_mean_motion_dot": -2.01e-06,
        "meta_mean_motion_ddot": 0,
        "tle_line1": "1 33396U 08049A   25357.95483284 -.00000201  00000+0 -74221-4 0  9994",
        "tle_line2": "2 33396  98.5849  55.7128 0001222  93.3739 266.7577 14.20097420893096"
      },
      "geometry": {
        "type": "Point",
        "coordinates": [
          12.1996283033934,
          77.7033401934707
        ]
      }
    }
  ]
}